[{"OBJECT_NAME":"SUPERVIEW-1 03","OBJECT_ID":"2018-002A","EPOCH":"2026-03-09T22:14:33.880992","MEAN_MOTION":15.35916978,"ECCENTRICITY":0.00509393,"INCLINATION":97.3162,"RA_OF_ASC_NODE":154.1458,"ARG_OF_PERICENTER":177.0269,"MEAN_ANOMALY":183.1288,"EPHEMERIS_TYPE":0,"CLASSIFICATION_TYPE":"U","NORAD_CAT_ID":43099,"ELEMENT_SET_NO":999,"REV_AT_EPOCH":45311,"BSTAR":0.00062641306,"MEAN_MOTION_DOT":0.00022818,"MEAN_MOTION_DDOT":0},{"OBJECT_NAME":"STARLINK-33643","OBJECT_ID":"2025-063U","EPOCH":"2026-03-09T23:20:24.038880","MEAN_MOTION":15.30229159,"ECCENTRICITY":0.00014337,"INCLINATION":53.1595,"RA_OF_ASC_NODE":51.0827,"ARG_OF_PERICENTER":96.2167,"MEAN_ANOMALY":263.8997,"EPHEMERIS_TYPE":0,"CLASSIFICATION_TYPE":"U","NORAD_CAT_ID":63381,"ELEMENT_SET_NO":999,"REV_AT_EPOCH":5480,"BSTAR":0.0015195335,"MEAN_MOTION_DOT":0.00044959,"MEAN_MOTION_DDOT":0}]
